NORAD_CAT_ID,OBJECT_NAME,OBJECT_TYPE,EPOCH,MEAN_MOTION,ECCENTRICITY,INCLINATION,RA_OF_ASC_NODE,ARG_OF_PERICENTER,MEAN_ANOMALY,BSTAR,MEAN_MOTION_DOT,MEAN_MOTION_DDOT,TLE_LINE0,TLE_LINE1,TLE_LINE2,SEMIMAJOR_AXIS,PERIOD,APOGEE,PERIGEE,DECAYED
55297.0,STARLINK-5284,PAYLOAD,2024-02-19 14:16:57,14.98326491,0.0002862,70.0,113.1278,266.2668,93.8164,4.9809e-05,5.01e-06,0.0,0 STARLINK-5284,1 55297U 23010AE  24050.59511554  .00000501  00000-0  49809-4 0  9990,2 55297  70.0000 113.1278 0002862 266.2668  93.8164 14.98326491 61065,6950.204,96.107,574.058,570.08,0.0
55297.0,STARLINK-5284,PAYLOAD,2024-02-20 11:06:42,14.98332507,0.0002891,69.9999,110.9398,270.1855,89.8973,-3.8679e-05,-5.54e-06,0.0,0 STARLINK-5284,1 55297U 23010AE  24051.46299381 -.00000554  00000-0 -38679-4 0  9991,2 55297  69.9999 110.9398 0002891 270.1855  89.8973 14.98332507 60888,6950.185,96.107,574.059,570.041,0.0
55297.0,STARLINK-5284,PAYLOAD,2024-02-20 14:18:58,14.98333415,0.0002885,69.9999,110.6032,270.2846,89.7983,-2.6487e-05,-4.09e-06,0.0,0 STARLINK-5284,1 55297U 23010AE  24051.59651265 -.00000409  00000-0 -26487-4 0  9991,2 55297  69.9999 110.6032 0002885 270.2846  89.7983 14.98333415 61211,6950.182,96.107,574.052,570.042,0.0
55297.0,STARLINK-5284,PAYLOAD,2024-02-20 20:43:31,14.98331352,0.0002862,70.0001,109.9301,271.0845,88.9987,-2.0454e-05,-3.37e-06,0.0,0 STARLINK-5284,1 55297U 23010AE  24051.86355341 -.00000337  00000-0 -20454-4 0  9995,2 55297  70.0001 109.9301 0002862 271.0845  88.9987 14.98331352 61258,6950.189,96.107,574.043,570.065,0.0
55297.0,STARLINK-5284,PAYLOAD,2024-02-21 11:08:43,14.98331164,0.0002894,69.9997,108.415,269.5951,90.4876,2.7507e-05,2.35e-06,0.0,0 STARLINK-5284,1 55297U 23010AE  24052.46439159  .00000235  00000-0  27507-4 0  9993,2 55297  69.9997 108.4150 0002894 269.5951  90.4876 14.98331164 61032,6950.189,96.107,574.066,570.043,0.0
55297.0,STARLINK-5284,PAYLOAD,2024-02-21 12:44:51,14.98331912,0.0002882,69.9997,108.2466,269.8793,90.2036,3.5328e-05,3.29e-06,0.0,0 STARLINK-5284,1 55297U 23010AE  24052.53115083  .00000329  00000-0  35328-4 0  9992,2 55297  69.9997 108.2466 0002882 269.8793  90.2036 14.98331912 61356,6950.187,96.107,574.055,570.049,0.0
55297.0,STARLINK-5284,PAYLOAD,2024-02-21 20:45:31,14.98329663,0.000287,69.9997,107.4049,270.1505,89.9325,1.6203e-05,1e-06,0.0,0 STARLINK-5284,1 55297U 23010AE  24052.86495248  .00000100  00000-0  16203-4 0  9990,2 55297  69.9997 107.4049 0002870 270.1505  89.9325 14.98329663 61409,6950.194,96.107,574.054,570.064,0.0
55297.0,STARLINK-5284,PAYLOAD,2024-02-22 11:10:44,14.98327867,0.0002706,69.9997,105.8902,264.6624,95.4227,-2.0854e-05,-3.42e-06,0.0,0 STARLINK-5284,1 55297U 23010AE  24053.46579466 -.00000342  00000-0 -20854-4 0  9999,2 55297  69.9997 105.8902 0002706 264.6624  95.4227 14.98327867 61189,6950.199,96.107,573.945,570.184,0.0
55297.0,STARLINK-5284,PAYLOAD,2024-02-22 12:46:52,14.98327602,0.0002853,69.9996,105.7219,269.6256,90.4576,-2.7043e-05,-4.16e-06,0.0,0 STARLINK-5284,1 55297U 23010AE  24053.53255513 -.00000416  00000-0 -27043-4 0  9990,2 55297  69.9996 105.7219 0002853 269.6256  90.4576 14.98327602 61502,6950.2,96.107,574.048,570.082,0.0
55297.0,STARLINK-5284,PAYLOAD,2024-02-22 20:47:32,14.98333998,0.0002826,69.9993,104.8803,273.3013,86.7823,-2.8918e-05,-4.38e-06,0.0,0 STARLINK-5284,1 55297U 23010AE  24053.86635130 -.00000438  00000-0 -28918-4 0  9999,2 55297  69.9993 104.8803 0002826 273.3013  86.7823 14.98333998 61554,6950.181,96.107,574.01,570.081,0.0
55297.0,STARLINK-5284,PAYLOAD,2024-02-23 11:12:44,14.9833507,0.0002968,69.999,103.3649,269.3048,90.777,2.2766e-05,1.79e-06,0.0,0 STARLINK-5284,1 55297U 23010AE  24054.46718744  .00000179  00000-0  22766-4 0  9994,2 55297  69.9990 103.3649 0002968 269.3048  90.7770 14.98335070 61338,6950.177,96.107,574.105,569.979,0.0
55297.0,STARLINK-5284,PAYLOAD,2024-02-23 12:48:53,14.98335406,0.0002988,69.9992,103.197,271.328,88.7537,2.9669e-05,2.61e-06,0.0,0 STARLINK-5284,1 55297U 23010AE  24054.53394697  .00000261  00000-0  29669-4 0  9990,2 55297  69.9992 103.1970 0002988 271.3280  88.7537 14.98335406 61654,6950.176,96.107,574.118,569.964,0.0
55297.0,STARLINK-5284,PAYLOAD,2024-02-23 20:49:33,14.98324755,0.0002737,69.9993,102.3548,275.7363,84.3484,5.7827e-05,5.97e-06,0.0,0 STARLINK-5284,1 55297U 23010AE  24054.86775345  .00000597  00000-0  57827-4 0  9998,2 55297  69.9993 102.3548 0002737 275.7363  84.3484 14.98324755 61398,6950.209,96.107,573.976,570.172,0.0
55297.0,STARLINK-5284,PAYLOAD,2024-02-24 12:50:54,14.98324287,0.0002819,69.9992,100.671,267.4306,92.653,3.1985e-05,2.89e-06,0.0,0 STARLINK-5284,1 55297U 23010AE  24055.53535445  .00000289  00000-0  31985-4 0  9993,2 55297  69.9992 100.6710 0002819 267.4306  92.6530 14.98324287 61805,6950.211,96.107,574.035,570.116,0.0
55297.0,STARLINK-5284,PAYLOAD,2024-02-24 20:51:34,14.98330939,0.0002876,69.9992,99.8294,269.4294,90.6535,-2.9524e-06,-1.28e-06,0.0,0 STARLINK-5284,1 55297U 23010AE  24055.86915132 -.00000128  00000-0 -29524-5 0  9995,2 55297  69.9992  99.8294 0002876 269.4294  90.6535 14.98330939 61851,6950.19,96.107,574.054,570.056,0.0
55297.0,STARLINK-5284,PAYLOAD,2024-02-25 04:52:14,14.98333813,0.0002902,69.9992,98.9877,269.6559,90.4268,1.2717e-05,5.9e-07,0.0,0 STARLINK-5284,1 55297U 23010AE  24056.20294837  .00000059  00000-0  12717-4 0  9992,2 55297  69.9992  98.9877 0002902 269.6559  90.4268 14.98333813 61590,6950.181,96.107,574.063,570.029,0.0
55297.0,STARLINK-5284,PAYLOAD,2024-02-25 12:52:54,14.98335637,0.0002901,69.9992,98.1462,269.6096,90.473,1.6406e-05,1.03e-06,0.0,0 STARLINK-5284,1 55297U 23010AE  24056.53674616  .00000103  00000-0  16406-4 0  9994,2 55297  69.9992  98.1462 0002901 269.6096  90.4730 14.98335637 61957,6950.175,96.107,574.057,570.024,0.0
55297.0,STARLINK-5284,PAYLOAD,2024-02-26 03:18:07,14.98326369,0.000296,69.999,96.6312,268.664,91.418,1.9061e-05,1.34e-06,0.0,0 STARLINK-5284,1 55297U 23010AE  24057.13759124  .00000134  00000-0  19061-4 0  9993,2 55297  69.9990  96.6312 0002960 268.6640  91.4180 14.98326369 61739,6950.204,96.107,574.126,570.012,0.0
55297.0,STARLINK-5284,PAYLOAD,2024-02-26 12:54:55,14.98365102,0.0002352,69.9994,95.6212,257.3268,102.7628,-0.00057651,-6.971e-05,0.0,0 STARLINK-5284,1 55297U 23010AE  24057.53814067 -.00006971  00000-0 -57651-3 0  9998,2 55297  69.9994  95.6212 0002352 257.3268 102.7628 14.98365102 61794,6950.084,96.105,573.584,570.315,0.0
55297.0,STARLINK-5284,PAYLOAD,2024-02-27 03:20:08,14.98329621,0.0002735,69.9997,94.1072,268.9014,91.1831,-4.028e-05,-5.74e-06,0.0,0 STARLINK-5284,1 55297U 23010AE  24058.13899144 -.00000574  00000-0 -40280-4 0  9998,2 55297  69.9997  94.1072 0002735 268.9014  91.1831 14.98329621 61880,6950.194,96.107,573.96,570.158,0.0
55297.0,STARLINK-5284,PAYLOAD,2024-02-27 11:20:48,14.98342502,0.0002499,69.9991,93.2651,265.4828,94.6046,-0.00027219,-3.34e-05,0.0,0 STARLINK-5284,1 55297U 23010AE  24058.47278931 -.00003340  00000-0 -27219-3 0  9990,2 55297  69.9991  93.2651 0002499 265.4828  94.6046 14.98342502 62249,6950.154,96.106,573.756,570.282,0.0
55297.0,STARLINK-5284,PAYLOAD,2024-02-27 19:21:29,14.98342536,0.0002846,69.9993,92.4228,272.6678,87.4155,-0.00022857,-2.82e-05,0.0,0 STARLINK-5284,1 55297U 23010AE  24058.80658724 -.00002820  00000-0 -22857-3 0  9994,2 55297  69.9993  92.4228 0002846 272.6678  87.4155 14.98342536 62294,6950.154,96.106,573.997,570.041,0.0
55297.0,STARLINK-5284,PAYLOAD,2024-02-28 03:22:09,14.98337416,0.00028,69.9994,91.5798,267.5275,92.5563,-5.3684e-05,-7.34e-06,0.0,0 STARLINK-5284,1 55297U 23010AE  24059.14038649 -.00000734  00000-0 -53684-4 0  9995,2 55297  69.9994  91.5798 0002800 267.5275  92.5563 14.98337416 62036,6950.17,96.107,573.981,570.089,0.0
55297.0,STARLINK-5284,PAYLOAD,2024-02-28 11:22:48,14.98330394,0.0002312,69.9992,90.7402,262.5599,97.5297,0.00044761,5.252e-05,0.0,0 STARLINK-5284,1 55297U 23010AE  24059.47417618  .00005252  00000-0  44761-3 0  9991,2 55297  69.9992  90.7402 0002312 262.5599  97.5297 14.98330394 62081,6950.192,96.107,573.664,570.45,0.0
55297.0,STARLINK-5284,PAYLOAD,2024-02-28 19:23:29,14.9833169,0.0002319,69.9996,89.8974,273.5066,86.5827,-3.7339e-06,-1.37e-06,0.0,0 STARLINK-5284,1 55297U 23010AE  24059.80798570 -.00000137  00000-0 -37339-5 0  9991,2 55297  69.9996  89.8974 0002319 273.5066  86.5827 14.98331690 62139,6950.188,96.107,573.664,570.441,0.0
55297.0,STARLINK-5284,PAYLOAD,2024-02-29 05:00:18,14.98321505,0.0002904,69.999,88.8885,269.666,90.4166,-6.8208e-05,-9.07e-06,0.0,0 STARLINK-5284,1 55297U 23010AE  24060.20855201 -.00000907  00000-0 -68208-4 0  9995,2 55297  69.9990  88.8885 0002904 269.6660  90.4166 14.98321505 62199,6950.219,96.108,574.103,570.066,0.0
55297.0,STARLINK-5284,PAYLOAD,2024-02-29 11:24:51,14.98321725,0.0002828,69.9991,88.2146,268.0281,92.0554,-7.072e-05,-9.36e-06,0.0,0 STARLINK-5284,1 55297U 23010AE  24060.47559286 -.00000936  00000-0 -70720-4 0  9992,2 55297  69.9991  88.2146 0002828 268.0281  92.0554 14.98321725 62543,6950.218,96.108,574.049,570.118,0.0
55297.0,STARLINK-5284,PAYLOAD,2024-02-29 19:25:31,14.98325694,0.0003009,69.9988,87.3721,269.8105,90.271,-5.6808e-05,-7.71e-06,0.0,0 STARLINK-5284,1 55297U 23010AE  24060.80939035 -.00000771  00000-0 -56808-4 0  9991,2 55297  69.9988  87.3721 0003009 269.8105  90.2710 14.98325694 62592,6950.206,96.107,574.163,569.98,0.0
55297.0,STARLINK-5284,PAYLOAD,2024-03-01 03:26:11,14.98328694,0.0002957,69.9987,86.5309,270.3709,89.7111,-0.0001036,-1.329e-05,0.0,0 STARLINK-5284,1 55297U 23010AE  24061.14319049 -.00001329  00000-0 -10360-3 0  9998,2 55297  69.9987  86.5309 0002957 270.3709  89.7111 14.98328694 62335,6950.197,96.107,574.117,570.007,0.0
55297.0,STARLINK-5284,PAYLOAD,2024-03-01 11:26:51,14.98335518,0.0003006,69.9986,85.689,270.5727,89.5088,-0.00017573,-2.189e-05,0.0,0 STARLINK-5284,1 55297U 23010AE  24061.47698793 -.00002189  00000-0 -17573-3 0  9998,2 55297  69.9986  85.6890 0003006 270.5727  89.5088 14.98335518 62690,6950.176,96.107,574.13,569.952,0.0
